type,sitecode,city,address1,address2,city,state,zipcode,telephone,fax,lat,lng,region_lat,region_lng,officename,servicing_states,,,region,_name,efile_fax,field_offices
RO,X23,Boston,"Thomas P. O'Neill, Jr. Federal Building","10 Causeway Street, Suite 565",Boston,MA,02222,(888) 870-7578,8336130456,42.36189,-71.062235,44.543505,-70.598145,"SSA, OHO","Connecticut, Maine, Massachusetts, New Hampshire, Rhode Island, Vermont",,,1,Region 1,,
HO,T24,Boston,4th Floor,One Bowdoin Square,Boston,MA,02114,(888) 870-7573,8337100405,42.36189,-71.062235,,,"SSA, OHO",,,,1,Region 1,(877) 787-5236,"MASSACHUSETTS: Attleboro, Boston, Brockton, Chelsea, Dorchester, Fall River, Falmouth, Fitchburg, Framingham, Gardner, Hanover, Hyannis, Malden, New Bedford, Norwood, Quincy, Roslindale, Somerville, Taunton, Waltham"
HO,X68,Hartford,William R. Cotter Federal Building,"135 High Street, Room 331",Hartford,CT,06103-1193,(866) 931-2878,8333590111,41.769697,-72.67994,,,"SSA, OHO",,,,1,Region 1,(877) 787-5224,"CONNECTICUT: Bristol, East Hartford, Hartford, Meriden, Middleton, New Britain, Torrington, Waterbury, Willimantic"
HO,T21,Lawrence,Suite 301,439 South Union Street,Lawrence,MA,01843,(877) 405-9189,8337750565,42.690827,-71.153598,,,"SSA, OHO",,,,1,Region 1,(877) 312-6172,"MASSACHUSETTS: Lawrence, Lowell, Lynn, Haverhill, Salem and NEW HAMPSHIRE: Portsmouth"
HO,Y06,Manchester,Suite 303,1750 Elm Street,Manchester,NH,03104,(888) 318-7973,8335630487,43.003925,-71.465507,,,"SSA, OHO",,,,1,Region 1,(877) 787-5233,"NEW HAMPSHIRE: Concord, Keene, Littleton, Manchester, Nashua and VERMONT: Burlington, Montpelier, Rutland"
HO,Y05,New Haven,Connecticut Financial Center,"157 Church Street, 7th Floor",New Haven,CT,06510,(866) 613-2750,8335630485,41.307082,-72.924731,,,"SSA, OHO",,,,1,Region 1,(877) 482-0827,"CONNECTICUT: Ansonia, Bridgeport, Danbury, New Haven, New London, Norwalk, Norwich, Stamford"
HO,X33,Portland,Suite 600,One Portland Square,Portland,ME,04101-4092,(877) 701-2137,8336320069,43.656604,-70.256148,,,"SSA, OHO",,,,1,Region 1,(877) 787-5229,"MAINE: Auburn, Augusta, Bangor, Portland, Presque Isle, Rockland, Saco, Waterville"
HO,Y04,Providence,"10th Floor, Suite 1000W",155 Westminster Street,Providence,RI,02903,(877) 583-4082,8335630483,41.823881,-71.411412,,,"SSA, OHO",,,,1,Region 1,(877) 787-5238,"RHODE ISLAND: Newport, Pawtucket, Providence, Warwick, Woonsocket"
HO,X67,Springfield,Suite 450,1441 Main Street,Springfield,MA,01103,(866) 964-5058,8333590109,42.102887,-72.590425,,,"SSA, OHO",,,,1,Region 1,(877) 787-5232,"MASSACHUSETTS: Greenfield, Holyoke, North Adams, Pittsfield, Springfield, Worcester"
RO,X24,New York,Room 34-102,26 Federal Plaza,New York,NY,10278,(212) 264-4036,8336311019,40.715216,-74.00367,42.130821,-75.948486,"SSA, OHO","New Jersey, New York, Puerto Rico, U.S. Virgin Islands",,,2,Region 2,,
HO,X37,Albany,2nd Floor,12 Corporate Woods Boulevard,Albany,NY,12211,(866) 643-3035,8336590413,42.652108,-73.751181,,,"SSA, OHO",,,,2,Region 2,(877) 379-8560,"NEW YORK: Albany, Gloversville, Hudson, Oneonta, Plattsburgh, Queensbury, Schenectady, Troy"
HO,X36,Bronx,2nd Floor - Suite 200,220 East 161st Street,Bronx,NY,10451,(866) 563-9573,8336320077,40.825576,-73.918458,,,"SSA, OHO",,,,2,Region 2,(877) 379-8661,"NEW YORK: East Bronx, Hunts Point, Laconia Avenue, North Bronx, South Bronx, West Farms"
HO,X34,Buffalo,2nd Floor,130 Delaware Avenue,Buffalo,NY,14202,(866) 348-5819,8336320071,42.889613,-78.873897,,,"SSA, OHO",,,,2,Region 2,(877) 379-8633,"NEW YORK: Batavia, Buffalo, Dunkirk, Jamestown, Niagara Falls, Olean, Ridge Road"
HO,T2E,Jersey City,Second Floor,325 West Side Avenue,Jersey City,NJ,07305,(877) 773-7451,8337210877,40.713398,-74.090082,,,"SSA, OHO",,,,2,Region 2,(877) 560-6890,"NEW JERSEY:  Clifton, Hackensack, Hoboken, Jersey  City, Paterson and NEW YORK: Hylan Boulevard, Staten Island"
HO,X70,Long Island,730 Federal Plaza,,Central Islip,NY,11722,(866) 931-4494,8333590115,40.760254,-73.190399,,,"SSA, OHO",,,,2,Region 2,(877) 379-8559,"NEW YORK: Freeport, Melville, Mineola, Patchogue, Riverhead, West Babylon"
HO,Y61,Mayaguez,Medical Emporium Building,"351 Ave Hostos, Suite 301",Mayaguez,PR,00680-1507,(866) 238-1384,8335110333,18.202884,-67.147176,,,"SSA, OHO",,,,2,Region 2,(877) 482-0821,
HO,X01,Newark,3rd Floor,1100 Raymond Boulevard,Newark,NJ,07102,(877) 405-9798,8337790460,40.736222,-74.166987,,,"SSA, OHO",,,,2,Region 2,(877) 482-0781,"NEW JERSEY: East Orange, Neptune, New Brunswick, Newark, Newton, Parsippany, Somerville, Springfield Ave, Trenton, Union Township, Woodbridge"
HO,X82,New York,Room 2909,26 Federal Plaza,New York,NY,10278-0035,(877) 405-6744,8339852296,40.715216,-74.00367,,,"SSA, OHO",,,,2,Region 2,(877) 379-8642,"NEW YORK: Bedford Heights,  Brooklyn New Utrecht,  Downtown East Harlem, East Village, Midtown, Uptown, Washington Heights"
HO,X69,New York Varick,"3rd Floor, Room 315",201 Varick Street,New York,NY,10014-9998,(866) 964-9971,8333590113,40.72834,-74.006221,,,"SSA, OHO",,,,2,Region 2,(877) 379-8558,"NEW YORK: Boro Hall, Brooklyn Flatbush, Brooklyn Bushwick, Canarsie"
HO,Y62,Ponce,Suite 302,880 Tito Castro Avenue,Ponce,PR,00716-4735,(866) 217-1507,8335110335,18.029894,-66.594577,,,"SSA, OHO",,,,2,Region 2,(877) 470-5091,"PUERTO RICO: Guayama, Ponce"
HO,X35,Queens,Joseph P Addabbo Federal Building,"155-10 Jamaica Avenue, 2nd Floor",Jamaica,NY,11432,(866) 931-6092,8336320075,40.702898,-73.800692,,,"SSA, OHO",,,,2,Region 2,(877) 304-5005,"NEW YORK: Cypress Hill, Far Rockaway, Flushing, Jamaica,  Long Island City, Rego Park"
HO,Y77,Rochester,"U.S. Federal Building, Room 4140",100 State Street,Rochester,NY,14614,(866) 331-3271,8335110339,43.157841,-77.613464,,,"SSA, OHO",,,,2,Region 2,(877) 304-8991,"NEW YORK: Geneva, Greece, Rochester"
HO,Y60,San Juan,"Capital Office Building, 10th Floor",800 Ponce de Leon Avenue,San Juan,PR,00907,(866) 262-0047,8335110331,18.448924,-66.072026,,,"SSA, OHO",,,,2,Region 2,(877) 470-5094,"PUERTO RICO: Arecibo, Bayamon, Caguas, Carolina, Fajardo, Hato Tejas, Humacao, Manati, San Juan, San Patricio and VIRGIN ISLANDS: St. Croix, St. Thomas"
HO,T16,South Jersey,2475 McClellan Avenue,,Pennsauken,NJ,08109,(866) 964-5769,8339422183,39.930712,-75.067977,,,"SSA, OHO",,,,2,Region 2,(877) 389-3957,"NEW JERSEY: Brick, Bridgeton, Cherry Hill, Egg Harbor Township, Glassboro, Mount Holly, Rio Grande, Toms River"
HO,X02,Syracuse,5th Floor,300 S. State Street,Syracuse,NY,13202,(888) 655-6477,8337790462,43.048357,-76.147649,,,"SSA, OHO",,,,2,Region 2,(877) 304-5049,"NEW YORK:  Binghamton, Corning, Elmira, Ithaca, Ogdensburg, Oswego, Syracuse, Utica, Watertown"
HO,Y07,White Plains,Suite 202,75 South Broadway,White Plains,NY,10601,(877) 691-6146,8335630489,41.029702,-73.762444,,,"SSA, OHO",,,,2,Region 2,(877) 304-8717,"NEW YORK:  Monticello, New Rochelle, Newburgh, Peekskill, Poughkeepsie, West Nyack, White Plains, Yonkers"
RO,X25,Philadelphia,4th Floor,300 Spring Garden Street,Philadelphia,PA,19123,(215) 597-9980,8336130470,39.953027,-75.167212,38.953027,-79.167212,"SSA, OHO","Delaware, Maryland, Pennsylvania, Virginia, West Virginia, District of Columbia",,,3,Region 3,,
HO,T21,Baltimore,"The Symphony Center, Room 300",1010 Park Avenue,Baltimore,MD,21201-5600,(866) 613-3960,8337100399,39.303029,-76.618979,,,"SSA, OHO",,,,3,Region 3,(877) 548-8804,"MARYLAND: Abingdon, Annapolis, Baltimore (Downtown), Baltimore (Glen Burnie), Baltimore (Northeast), Baltimore (Rossville), Baltimore (Wabash), Baltimore (West), Columbia, Elkton, Frederick, Hagerstown, Owings Mills, Towson, Westminster, Winchester"
NCAC,,Baltimore,Woodlawn Office Complex Building,1718 Woodlawn Drive,Baltimore,MD,21207,(410) 965-0134,8335160367,39.331435,-76.759123,,,"SSA, OHO, NCAC",,,,3,Region 3,(877) 871-1880,NCACs are not open to the public.
NHC,T0T,Baltimore,Suite 450,849 Fairmount Avenue,Towson,MD,21286,(877) 711-5019,8336311016,39.331435,-76.759123,,,"SSA, OHO, NHC",,,,3,Region 3,(877) 310-3637,NHCs are not open to the public.
NHC-SO,T2W,Baltimore,Suite 1311,1718 Woodlawn Drive,Baltimore,MD,21207,(410) 965-8795,8336311016,39.314902,-76.737517,,,"SSA, OHO, NHC-SO",,,,3,Region 3,(877) 310-3637,NHCs are not open to the public.
HO,Y09,Charleston,Suite 100,500 Quarrier Street,Charleston,WV,25301,(888) 527-9325,8335740712,38.35189,-81.637308,,,"SSA, OHO",,,,3,Region 3,(877) 871-1882,"OHIO: Athens, Cambridge, Marietta and WEST VIRGINIA: Beckley, Charleston, Logan, Martinsburg, Parkersburg, St. Albans, Welch, Williamson"
HO,X39,Charlottesville,2nd Floor,1470 Pantops Mountain Place,Charlottesville,VA,22911,(866) 613-2969,8336590418,38.027995,-78.439394,,,"SSA, OHO",,,,3,Region 3,(877) 390-2321,"MARYLAND: Cumberland and VIRGINIA:  Charlottesville, Culpeper, Danville, Harrisonburg, Martinsville, South Boston, Staunton and WEST VIRGINIA: Petersburg"
HO,T40,Dover,Blue Hen Corporate Center,"655 S. Bay Road, Suite 3i",Dover,DE,19901,(877) 405-3671,8334140625,39.156957,-75.530898,,,"SSA, OHO",,,,3,Region 3,(877) 548-8803,"DELAWARE: Dover, Lewes, Wilmington and MARYLAND: Cambridge"
HO,T26,Elkins Park,Suite 250,8380 Old York Road,Elkins Park,PA,19027,(866) 964-7369,8337190410,40.086662,-75.12804,,,"SSA, OHO",,,,3,Region 3,(877) 548-8806,"PENNSYLVANIA: Allentown, Bethlehem, Easton, Fairless Hills, Limerick, Philadelphia (NE), Reading"
NCAC,9O2,Falls Church,"One Skyline Tower, 12th Floor",5107 Leesburg Pike,Falls Church,VA,22041,(703) 605-7555,8335160390,38.84371,-77.119292,,,"SSA, OHO, NCAC",,,,3,Region 3,,NCACs are not open to the public.
NHC-CO,Y40,Falls Church,"One Skyline Tower, Suite 700",5107 Leesburg Pike,Falls Church,VA,22041,(703) 605-8405,7036058492,38.84432,-77.116663,39.402244,-78.87959,"SSA, OHO, NHC-Central Office",,,,3,Region 3,,NHCs are not open to the public.
NHC,T0D,Falls Church,"One Skyline Tower, Suites 105A, 109A, and 1504",5107 Leesburg Pike,Falls Church,VA,22041,(877) 229-3532,8337960379,39.402244,-78.8795902,,,"SSA, OHO, NHC",,,,3,Region 3,(877) 311-5288,NHCs are not open to the public.
HO,Y10,Harrisburg,8th Floor,2 North 2nd Street,Harrisburg,PA,17101,(888) 352-3691,8335740714,40.259512,-76.882136,,,"SSA, OHO",,,,3,Region 3,(877) 548-8807,"PENNSYLVANIA: Carlisle, Chambersburg, Harrisburg, Lancaster, Lebanon, Lewistown, York"
HO,X04,Huntington,2nd Floor Annex,301 9th Street,Huntington,WV,25701,(866) 592-1607,8337890403,38.421545,-82.444317,,,"SSA, OHO",,,,3,Region 3,(877) 871-1883,"KENTUCKY:  Ashland, Pikeville, Prestonsburg and OHIO: Gallipolis, Ironton, Portsmouth and WEST VIRGINIA: Huntington"
HO,Y08,Johnstown,Suite 200,334 Washington Street,Johnstown,PA,15901-9954,(866) 331-7134,8335630491,40.327771,-78.919688,,,"SSA, OHO",,,,3,Region 3,(877) 548-8809,"PENNSYLVANIA: Altoona, DuBois, Indiana, Johnstown, State College"
HO,R95,Morgantown,Suite FS1,5000 Greenbag Road,Morgantown,WV,26501-7236,(877) 405-9197,8337960375,44.872552,4.857682,,,"SSA, OHO",,,,3,Region 3,(877) 871-1884,"OHIO: East Liverpool, Steubenville and PENNSYLVANIA: Uniontown and WEST VIRGINIA: Clarksburg, Elkins, Fairmont, Morgantown, Wheeling"
HO,X40,Norfolk,3rd Floor,5850 Lake Herbert Drive,Norfolk,VA,23502,(866) 931-9167,8336590420,36.869012,-76.20704,,,"SSA, OHO",,,,3,Region 3,(877) 871-1879,"MARYLAND: Charlotte Hall, Salisbury and VIRGINIA: Accomac, Hampton, Newport News, Norfolk, Portsmouth, Suffolk, Virginia Beach"
HO,Y11,Philadelphia,21st Floor,1601 Market Street,Philadelphia,PA,19103,(866) 964-6288,8335740716,39.953027,-75.167212,,,"SSA, OHO",,,,3,Region 3,(877) 548-8810,"PENNSYLVANIA: Norristown, Philadelphia (Aramingo), Philadelphia (Downtown), Philadelphia (South), Philadelphia (West), West Chester"
HO,R56,Philadelphia East,Suite 502,833 Chestnut Street,Philadelphia,PA,19107,(866) 572-9721,8333200687,39.949764,-75.155156,,,"SSA, OHO",,,,3,Region 3,(877) 548-8811,"PENNSYLVANIA: Chester, Philadelphia (Germantown), Philadelphia (Nicetown), Upper Darby"
HO,Y12,Pittsburgh,Suite 2308,1000 Liberty Avenue,Pittsburgh,PA,15222,(866) 331-2291,8335740718,40.442597,-79.999179,,,"SSA, OHO",,,,3,Region 3,(877) 560-5935,"PENNSYLVANIA: Greensburg, McKeesport, Monroeville, Pittsburgh (Downtown), Pittsburgh (East), Pittsburgh (Mt. Lebanon), Rostraver, Washington"
HO,X72,Richmond,Suite 225,1100 E. Main Street,Richmond,VA,23219,(877) 405-3665,8339492150,37.538529,-77.437107,,,"SSA, OHO",,,,3,Region 3,(877) 871-1880,"VIRGINIA: Chesterfield, Farmville, Fredericksburg, Lynchburg, Petersburg, Richmond (Downtown), Richmond (East)"
HO,X38,Roanoke,"Second Floor, Suite 200",612 South Jefferson Street,Roanoke,VA,24011,(866) 592-3548,8336590415,37.268221,-79.940219,,,"SSA, OHO",,,,3,Region 3,(877) 871-1881,"VIRGINIA: Bristol, Covington, Roanoke, Wise, Wytheville and WEST VIRGINIA: Bluefield"
HO,T0B,Seven Fields,"One Adams Place, Suite 200",300 Seven Fields Boulevard,Mars,PA,16046,(855) 278-4199,8337960377,40.690402,-80.057263,,,"SSA, OHO",,,,3,Region 3,(877) 560-5935,"PENNSYLVANIA: Ambridge, Butler, Cranberry (formerly Oil City), Erie, Kittanning, Meadville, New Castle, New Kensington, Sharon"
HO,X73,Washington,3rd Floor,1227 25th Street N.W.,Washington,DC,20037,(866) 414-6259,8339492152,38.905993,-77.052875,,,"SSA, OHO",,,,3,Region 3,(877) 548-8583,"DISTRICT OF COLUMBIA: Anacostia, DC Downtown/D Street, Postal Plaza and MARYLAND: Camp Springs, Greenbelt, Rockville, Silver Spring and VIRGINIA: Alexandria, Arlington, Fairfax, Manassas"
HO,X03,Wilkes-Barre,"Stegmaier Building, Suite 201",7 North Wilkes-Barre Boulevard,Wilkes-Barre,PA,18702-5242,(866) 895-1594,8337790464,41.242076,-75.877185,,,"SSA, OHO",,,,3,Region 3,(877) 560-5936,"PENNSYLVANIA: Bloomsburg, East Stroudsburg, Hazleton, Pottsville, Scranton, Selinsgrove, Towanda, Wilkes-Barre, Williamsport"
RO,X21,Atlanta,"Atlanta Federal Center, Suite 20T10","61 Forsyth Street, S.W.",Atlanta,GA,30303,(404) 562-1182,8335860166,33.761192,-84.385601,32.560395,-83.534424,"SSA, OHO","Alabama, Florida, Georgia, Kentucky, Mississippi, North Carolina, South Carolina, Tennessee",,,4,Region 4,,
HO,Y13,Atlanta (Downtown),"Suite 500, Marquis 1",245 Peachtree Center Avenue,Atlanta,GA,30303,(866) 964-7350,8336040723,33.761192,-84.385601,,,"SSA, OHO",,,,4,Region 4,(877) 330-9975,"GEORGIA: Atlanta (Downtown), Atlanta (West), Columbus, La Grange, Marietta, Newnan, Southlake-Morrow, Villa Rica"
HO,X83,Atlanta (North),2nd Floor,4100 Old Milton Parkway,Alpharetta,GA,30005,(855) 210-1031,8339852298,33.84916,-84.315483,,,"SSA, OHO",,,,4,Region 4,(877) 330-9977,"GEORGIA: Gainesville, Gwinnett, Toccoa, Winder"
PU,T2J,Augusta,"115 Robert C. Daniel, Jr. Parkway",,Augusta,GA,30909,(888) 872-1596,8337750567,33.459648,-82.032129,,,"SSA, OHO, Pulling Unit",,,,4,Region 4,(877) 314-9639,"Pulling Unit assigned to the OHO Columbia, SC Hearing Office"
HO,X77,Birmingham,1st Floor,"1200 Rev. Abraham Woods, Jr. Boulevard",Birmingham,AL,35285,(866) 613-2863,8339681654,33.516322,-86.821509,,,"SSA, OHO",,,,4,Region 4,(877) 670-6787,"ALABAMA: Albertville, Bessemer, Birmingham (Downtown), Birmingham (East), Gadsden, Jasper, Talladega, Tuscaloosa"
HO,Y18,Charleston,Suite 300,3875 Faber Place Drive,North Charleston,SC,29405,(877) 405-1467,8336040730,32.848785,-80.019114,,,"SSA, OHO",,,,4,Region 4,(877) 470-5098,"NORTH CAROLINA: Wilmington and SOUTH CAROLINA: Beaufort, Charleston, Conway, Georgetown, Walterboro"
HO,T27,Charlotte,Suite 200,2201 Coronation Boulevard,Charlotte,NC,28227,(888) 397-4124,8337190412,35.085412,-80.84526,,,"SSA, OHO",,,,4,Region 4,(877) 470-5101,"NORTH CAROLINA: Albemarle, Charlotte, Concord, Hickory, Gastonia, Salisbury, Shelby, Statesville and SOUTH CAROLINA: Rock Hill"
HO,X49,Chattanooga,Suite 200,1232 Premier Drive,Chattanooga,TN,37421,(877) 833-2721,8335100092,35.019159,-85.188977,,,"SSA, OHO",,,,4,Region 4,(877) 470-5099,"GEORGIA: Dalton, Rome and TENNESSEE: Athens, Chattanooga, Cleveland, Tullahoma"
HO,T22,Columbia,Suite 215,101 Executive Center Drive,Columbia,SC,29210,(866) 399-6950,8337100401,34.008407,-81.04839,,,"SSA, OHO",,,,4,Region 4,(877) 470-5093,"GEORGIA:  Augusta and SOUTH CAROLINA: Aiken, Bennettsville, Columbia, Florence, Orangeburg, Sumter"
HO,T1I,Covington,10155 Eagle Drive,,Covington,GA,30014,(866) 708-3231,8339532164,33.574724,-83.840079,,,"SSA, OHO",,,,4,Region 4,(877) 787-5217,"GEORGIA: Athens, Covington, Decatur, Griffin"
HO,T1L,Fayetteville,2nd Floor,150 Rowan Street,Fayetteville,NC,28301,(888) 552-7169,8339561140,35.058408,-78.878613,,,"SSA, OHO",,,,4,Region 4,(877) 435-0336,"NORTH CAROLINA: Fayetteville, Kinston, New Bern, Lumberton, Rockingham, Sanford, Wilmington, Whiteville"
HO,X50,Florence,Walnut Street Executive Center,"204 South Walnut Street, Suite D",Florence,AL,35630,(866) 964-9978,8335100094,34.800902,-87.671377,,,"SSA, OHO",,,,4,Region 4,(877) 871-1886,"ALABAMA: Cullman, Florence, Huntsville"
HO,X07,Fort Lauderdale,"Suite 1000, 10th Floor",500 East Broward Boulevard,Fort Lauderdale,FL,33394,(888) 436-2637,8337890409,26.121951,-80.138418,,,"SSA, OHO",,,,4,Region 4,(877) 760-0003,
HO,T1Z,Fort Myers,"2nd Floor, Suite 210",3650 Colonial Boulevard,Ft. Myers,FL,33966,(888) 462-1109,8337020721,26.596541,-81.838789,,,"SSA, OHO",,,,4,Region 4,(877) 847-1596,"FLORIDA: Ft. Myers, Naples, Port Charlotte"
HO,T2H,Franklin,Suite 350,6840 Carothers Parkway,Franklin,TN,37067-6538,(866) 568-9450,8337630400,35.943073,-86.807376,,,"SSA, OHO",,,,4,Region 4,(877) 560-6889,"ALABAMA: Decatur and TENNESSEE: Columbia, Jackson, Lawrenceburg, McMinnville, Murfreesboro, Selmer"
HO,Y20,Greensboro,Suite 300,101 South Edgeworth Street,Greensboro,NC,27401,(866) 690-2091,8336160128,36.0727747,-79.7961288,,,"SSA, OHO",,,,4,Region 4,(877) 470-5092,"NORTH CAROLINA: Greensboro, Reidsville, Wilkesboro"
HO,X48,Greenville,475 North Main Street,,Mauldin,SC,29662,(866) 827-6721,8335090823,34.7807,-82.3035,,,"SSA, OHO",,,,4,Region 4,(877) 470-5096,"NORTH CAROLINA: Franklin, Hendersonville FO and SOUTH CAROLINA: Anderson, Greenville, Spartanburg and SOUTH CAROLINA: Clinton, Greenwood"
HO,X79,Hattiesburg,1901 Broadway Drive,,Hattiesburg,MS,39402,(866) 348-5831,8339681658,31.2992444,-89.3239126,,,"SSA, OHO",,,,4,Region 4,(877) 372-8804,"MISSISSIPPI: Brookhaven, Forest, Gulfport, Hattiesburg, Laurel, McComb, Meridian, Moss Point, Natchez, Philadelphia"
HO,Y19,Jackson,"McCoy Federal Building, Suite 401",100 West Capitol Street,Jackson,MS,39269,(888) 385-8499,8336040732,32.301103,-90.188912,,,"SSA, OHO",,,,4,Region 4,(877) 435-0330,"MISSISSIPPI: Cleveland, Greenville, Greenwood, Jackson, Kosciusko, Vicksburg"
HO,X41,Jacksonville,"Building 400, Suite 400",8880 Freedom Crossing Trail,Jacksonville,FL,32256,(866) 931-0124,8336590423,30.2129755,-81.5691346,,,"SSA, OHO",,,,4,Region 4,(877) 760-0594,"FLORIDA: Deland, Gainesville, Jacksonville (North), Jacksonville (South), Lake City, Port Orange, St. Augustine"
HO,T23,Kingsport,2405 South Wilcox Drive,,Kingsport,TN,37660,(888) 632-6913,8337100403,36.4998417,-82.5662486,,,"SSA, OHO",,,,4,Region 4,(877) 601-3827,"NORTH CAROLINA: Asheville and TENNESSEE: Greenville, Kingsport, Johnson City, Morristown"
HO,X51,Knoxville,135 Circle Lane,,Knoxville,TN,37919,(877) 692-3141,8335100096,35.9328054,-84.0125623,,,"SSA, OHO",,,,4,Region 4,(877) 435-0335,"TENNESSEE: Cookeville, Jacksboro, Knoxville, Oak Ridge"
HO,X74,Lexington,Suite 210,2241 Buena Vista Road,Lexington,KY,40505-9901,(866) 783-7301,8339492154,38.064923,-84.525049,,,"SSA, OHO",,,,4,Region 4,(877) 347-8827,"KENTUCKY: Campbellsville, Danville, Frankfort, Hazard, Jackson, Lexington, Maysville, Richmond"
HO,X80,Louisville,Gene Snyder U.S. Courthouse,"601 W. Broadway, Suite 300",Louisville,KY,40202,(866) 755-0197,8339681660,38.245285,-85.743115,,,"SSA, OHO",,,,4,Region 4,(877) 347-9192,"INDIANA: New Albany and KENTUCKY: Bowling Green, Elizabethtown, Louisville (Downtown), Louisville
(East)"
NCAC,,Louisville,Gene Snyder U.S. Courthouse,"601 West Broadway, Lower Level",Louisville,KY,40202,(866) 367-1224,8334140619,38.246983,-85.762468,,,"SSA, OHO, NCAC",,,,4,Region 4,,NCACs are not open to the public.
HO,X05,Macon,Suite 500,484 Mulberry Street,Macon,GA,31201-7929,(866) 331-2191,8337890405,32.8365712,-83.6259892,,,"SSA, OHO",,,,4,Region 4,(877) 338-4214,"GEORGIA: Albany, Cordele, Macon, Tifton, Warner Robins"
HO,Y15,Memphis,309 Monroe Avenue,,Memphis,TN,38103,(866) 348-5830,8336040727,35.1423333,-90.0465977,,,"SSA, OHO",,,,4,Region 4,(877) 844-8753,"ARKANSAS: West Memphis; MISSISSIPPI: Olive Branch and TENNESSEE: Dyersburg, Memphis (Downtown), Memphis (North), Memphis (South), Union City"
HO,X75,Miami,"One Riverview Square, 8th Floor",333 S. Miami Avenue,Miami,FL,33130,(866) 964-5052,8339681652,25.7711084,-80.1929178,,,"SSA, OHO",,,,4,Region 4,(877) 330-7137,"FLORIDA: Allapattah, Hialeah, Key West, Little Havanna, Little River, Miami Beach, Miami (North), Miami (South), Perrine, Jackson Mem Site"
HO,X47,Middlesboro,12 Tech Park Drive,,Middlesboro,KY,40965,(877) 600-2851,8335090821,36.6055745,-83.7360038,,,"SSA, OHO",,,,4,Region 4,(877) 365-1103,"KENTUCKY: Corbin, Harlan, Middlesboro, Somerset"
HO,X78,Mobile,Suite 200,550 Government Street,Mobile,AL,36602,(866) 563-4698,8339681656,30.688372,-88.048647,,,"SSA, OHO",,,,4,Region 4,(877) 871-2433,"ALABAMA: Andalusia, Dothan, Fairhope, Jackson, Mobile and FLORIDA: Ft. Walton Beach, Pensacola"
HO,X42,Montgomery,Suite 200,4344 Carmichael Road,Montgomery,AL,36106,(866) 931-9032,8334990271,32.3568812,-86.2356097,,,"SSA, OHO",,,,4,Region 4,(877) 871-3055,"ALABAMA: Alexander City, Anniston, Montgomery, Opelika, Selma"
HO,Y14,Nashville,221 Cumberland Bend,,Nashville,TN,37228-1803,(877) 583-4103,8336040725,36.1947947,-86.788206,,,"SSA, OHO",,,,4,Region 4,(877) 847-1598,"TENNESSEE: Clarksville, Gallatin, Madison, Nashville, Paris"
HO,Y21,Orlando,"Glenridge Building, Suite 300",3505 Lake Lynda Drive,Orlando,FL,32817-8338,(877) 833-2730,8336160130,28.6009061,-81.2223825,,,"SSA, OHO",,,,4,Region 4,(877) 330-7138,"FLORIDA: Cocoa, Cocoa Beach, Kissimmee, Lake Mary, Leesburg, Ocala, Orlando"
HO,Y23,Paducah,Suite 200,4730 Village Square Drive,Paducah,KY,42001,(866) 964-2041,8336160134,37.0708501,-88.6911072,,,"SSA, OHO",,,,4,Region 4,(877) 371-2533,"KENTUCKY: Hopkinsville, Madisonville, Mayfield, Owensboro, Paducah"
HO,X43,Raleigh,Suite 200,4800 Falls of Neuse Road,Raleigh,NC,27609,(866) 708-3174,8334990273,35.8470291,-78.6138351,,,"SSA, OHO",,,,4,Region 4,(877) 470-5095,"NORTH CAROLINA: Ahoskie, Durham, Elizabeth City, Goldsboro, Greenville, Henderson, Raleigh, Roanoke Rapids, Rocky Mount, Smithfield, Washington, Wilson"
HO,Y22,Savannah,2nd Floor,8 Southern Oaks Court,Savannah,GA,31405,(866) 964-7590,8336160132,32.0622457,-81.1589056,,,"SSA, OHO",,,,4,Region 4,(877) 338-4215,"GEORGIA: Brunswick, Dublin, Savannah, Statesboro, Valdosta, Vidalia, Waycross"
HO,T1K,St. Petersburg,2nd Floor,830 Central Avenue,St. Petersburg,FL,33701,(877) 452-4193,8339561138,27.7711413,-82.6453705,,,"SSA, OHO",,,,4,Region 4,(877) 847-1597,"FLORDIA: Bradenton, Clearwater, New Port Richey, Sarasota, St. Petersburg, Venice"
HO,T1J,Tallahassee,2nd Floor,1961 Quail Grove Lane,Tallahassee,FL,32311,(888) 472-5996,8339532166,30.4004332,-84.2375502,,,"SSA, OHO",,,,4,Region 4,(877) 435-0334,"FLORIDA: Marianna, Panama City, Tallahassee and GEORGIA: Thomasville"
HO,X06,Tampa,"Fountain Square II, Suite 200",4925 Independence Parkway,Tampa,FL,33634,(855) 248-0239,8337890407,27.978468,-82.55003,,,"SSA, OHO",,,,4,Region 4,(877) 330-7844,"FLORIDA: Carrollwood, Dade City, Lakeland, Sebring, Tampa, Valrico, Winter Haven"
HO,Y49,Tupelo,Suite 3A,1150 South Green Street,Tupelo,MS,38804,(866) 275-9405,8335080572,34.248627,-88.70712,,,"SSA, OHO",,,,4,Region 4,(877) 470-5097,"MISSISSIPPI: Clarksdale, Columbus, Corinth, Grenada, Starkville, Tupelo"
RO,X26,Chicago,5th Floor,600 West Madison Street,Chicago,IL,60661,(877) 800-7576,8336310147,41.881821,-87.643173,43.224926,-88.231201,"SSA, OHO","Illinois, Indiana, Michigan, Minnesota, Ohio, Wisconsin",,,5,Region 5,,
HO,T1P,Akron,Suite 400,121 South Main Street,Akron,OH,44308-1426,(866) 708-3209,8336760109,41.0818216,-81.5181387,,,"SSA, OHO",,,,5,Region 5,(877) 482-0825,"OHIO: Akron (Downtown), Akron (West), Canton, Medina, New Philadelphia, Ravenna, Warren, Wooster, Youngstown"
HO,Y26,Chicago,"Citadel Building, 19th Floor",131 S. Dearborn,Chicago,IL,60603,(866) 964-1719,8336190566,41.879979,-87.634173,,,"SSA, OHO",,,,5,Region 5,(877) 670-6914,"ILLINOIS: Chicago (Back of the Yards), Chicago (East), Chicago (Lawndale), Chicago (Loop), Chicago (Near Northwest/West Town), Chicago (Near Southwest), Chicago (South), Chicago (Southeast), Chicago (West)"
NHC,T0Q,Chicago,6th Floor,600 West Madison Street,Chicago,IL,60661-2406,(877) 768-5681,8337960383,41.88287,-87.64355,,,"SSA, OHO, NHC",,,,5,Region 5,(877) 310-0642,NHCs are not open to the public.
HO,Y27,Cincinnati,"John W. Peck Federal Building, Suite 4-510",550 Main Street,Cincinnati,OH,45202,(877) 405-7672,8336190569,39.0986514,-84.515554,,,"SSA, OHO",,,,5,Region 5,(877) 904-5488,"INDIANA: Madison; KENTUCKY: Florence and OHIO: Batavia, Cincinnati (Downtown), Cincinnati (North), Hamilton"
HO,X85,Cleveland,"Skylight Office Tower, Suite 500",1660 West Second Street,Cleveland,OH,44113,(877) 402-0822,8336940061,41.500607,-81.682041,,,"SSA,",,,,5,Region 5,(877) 904-5539,"OHIO: Ashtabula, Cleveland (Buckeye Shaker), Cleveland (Downtown), Cleveland (East), Cleveland (Northeast), Cleveland (Northwest), Cleveland (Southeast), Cleveland (Southwest), Cleveland (West), Lorain, Painesville"
HO,X09,Columbus,Suite 400,401 N. Front Street,Columbus,OH,43215,(888) 397-6870,8335590768,39.969749,-83.00464,,,"SSA, OHO",,,,5,Region 5,(877) 486-2935,"OHIO: Chillicothe, Columbus (Downtown), Columbus (East), Columbus (North), Columbus (West), Lancaster, Mansfield, Marion, Newark, Zanesville"
HO,Y31,Dayton,"Courthouse Plaza SW, Suite 300",10 N. Ludlow Street,Dayton,OH,45402,(888) 450-4590,8336350630,39.7602273,-84.1938448,,,"SSA, OHO",,,,5,Region 5,(877) 486-2939,"OHIO: Dayton, Dayton (West), Middletown, Piqua, Springfield, Xenia"
HO,T17,Detroit,Patrick V. McNamara Federal Building,"477 Michigan Avenue, Room 900",Detroit,MI,48226,(888) 748-7696,8339422185,42.331072,-83.0530689,,,"SSA, OHO",,,,5,Region 5,(877) 559-1737,"MICHIGAN: Dearborn, Detroit (Connor), Detroit (Downtown), Detroit (East), Detroit (Grand River), Detroit (Southwest), Fort Gratiot, Wyandotte"
HO,Y30,Evanston,Northwestern University Research Park,"1033 University Place, Suite 200",Evanston,IL,60201,(866) 336-6051,8336190758,42.051097,-87.68609,,,"SSA, OHO",,,,5,Region 5,(877) 670-6920,"ILLINOIS: Chicago (North), Chicago (Northwest), Evanston, Freeport, Mt. Prospect, Rockford, Sterling, Waukegan, Woodstock"
HO,X84,Evansville,,100 NW Second Street,Evansville,IN,47708,(855) 863-3559,8339852301,37.975188,-87.567486,,,"SSA, OHO",,,,5,Region 5,(877) 670-6913,"ILLINOIS: Carbondale, Effingham, Harrisburg, Mount Vernon, West Frankfort; INDIANA: Evansville, Vincennes and KENTUCKY: Henderson"
HO,X86,Flint,300 West Second Street,,Flint,MI,48502-2047,(877) 607-9526,8336940063,43.0137785,-83.6925916,,,"SSA, OHO",,,,5,Region 5,(877) 559-1917,"MICHIGAN: Bay City, Flint (Downtown), Flint (North), Saginaw"
HO,X53,Fort Wayne,6511 Brotherhood Way,,Fort Wayne,IN,46825,(866) 770-1735,8333020014,41.138788,-85.142128,,,"SSA, OHO",,,,5,Region 5,(877) 670-6916,"INDIANA: Auburn, Elkhart, Fort Wayne, Marion"
HO,Y28,Grand Rapids,Suite 200,"1925 Breton Road, SE",Grand Rapids,MI,49506,(866) 613-2860,8336190613,42.963242,-85.667862,,,"SSA, OHO",,,,5,Region 5,(877) 904-5481,"MICHIGAN: Grand Rapids, Holland, Kalamazoo, Muskegon"
HO,Y29,Indianapolis,"Market Square Center, Suite 400",151 North Delaware Street,Indianapolis,IN,46204-2510,(866) 931-4820,8336190756,39.769382,-86.153614,,,"SSA, OHO",,,,5,Region 5,(877) 670-6919,"INDIANA: Anderson, Bloomington, Columbus, Crawfordsville, Indianapolis (Downtown), Indianapolis (Northeast), Indianapolis (West), Kokomo, Muncie, Richmond, Terre Haute"
HO,X52,Lansing,Suite 200,4202 Collins Road,Lansing,MI,48910,(877) 691-6144,8335100098,42.6905248,-84.4987889,,,"SSA, OHO",,,,5,Region 5,(877) 904-5486,"MICHIGAN: Battle Creek, Jackson, Lansing, Owosso"
HO,T1Q,Livonia,3rd Floor,19575 Victor Parkway,Livonia,MI,48152,(866) 530-7806,8336760113,42.426821,-83.4202362,,,"SSA, OHO",,,,5,Region 5,(877) 847-1606,"MICHIGAN: Ann Arbor, Detroit (Northwest), Farmington Hills, Inkster, Livonia, Pontiac"
HO,R30,Madison,3rd Floor,2501 W. Beltline Highway,Madison,WI,53713,(877) 600-2854,8333300038,43.03425,-89.4217369,,,"SSA, OHO",,,,5,Region 5,(877) 486-2936,"WISCONSIN: Eau Claire, Janesville, La Crosse, Lancaster, Madison, Portage, Rhinelander, Rice Lake, Wausau, Wisconsin Rapids"
HO,X10,Milwaukee,Room 300W,310 West Wisconsin Avenue,Milwaukee,WI,53203,(866) 495-0039,8335590772,43.0392749,-87.9155404,,,"SSA, OHO",,,,5,Region 5,(877) 486-2940,"MICHIGAN: Escanaba, Houghton, Ironwood, Marquette, Sault St. Marie and WISCONSIN: Appleton, Fond du Lac, Green Bay, Greenfield, Kenosha, Manitowoc, Marinette, Milwaukee (Downtown), Milwaukee (Mitchell), Milwaukee (North), Milwaukee (West), Oshkosh, Racine, Sheboygan, Waukesha, West Bend"
HO,Y24,Minneapolis,Suite 300,250 Marquette Avenue,Minneapolis,MN,55401,(877) 512-3856,8336190551,44.980956,-93.267962,,,"SSA, OHO",,,,5,Region 5,(877) 904-5482,"MINNESOTA: Austin, Bloomington, Brooklyn Center, Duluth, Fairmont, Hibbing, Mankato, Minneapolis, Rochester, St. Cloud, St. Paul, Winona and WISCONSIN: Superior"
HO,T1N,Mount Pleasant,4035 Sweeney Road,,Mount Pleasant,MI,48858,(866) 873-6604,8339642265,43.5827109,-84.755242,,,"SSA, OHO",,,,5,Region 5,(877) 435-0325,"MICHIGAN: Alpena, Big Rapids, Cadillac, Ludington, Mount Pleasant, Petoskey, Traverse City, West Branch"
HO,X08,Oak Brook,Suite 201,2301 West 22nd Street,Oak Brook,IL,60523,(866) 964-7344,8337890411,41.845535,-87.974662,,,"SSA, OHO",,,,5,Region 5,(877) 670-6912,"ILLINOIS: Aurora, Bloomingdale, Elgin, Hillside, North Riverside, Woodridge"
HO,X54,Oak Park,"Crown Pointe Building, Suite 500",25900 Greenfield Road,Oak Park,MI,48237-1267,(877) 223-6060,8333020016,42.480105,-83.201952,,,"SSA, OHO",,,,5,Region 5,(877) 904-5525,"MICHIGAN: Chesterfield, Clawson, Detroit (7 Mile-Wyoming), Highland Park, Pontiac, Roseville, Sterling Heights"
HO,Y25,Orland Park,15401 South 94th Avenue,,Orland Park,IL,60462,(877) 490-9530,8336190564,41.609011,-87.849763,,,"SSA, OHO",,,,5,Region 5,(877) 670-6915,"ILLINOIS: Champaign, Chicago (SW Suburbs), Chicago Heights, Danville, Joliet, Kankakee, Peru"
HO,X11,Peoria,3328 W. Willow Knolls Drive,,Peoria,IL,61614,(866) 726-8293,8335590774,40.7761897,-89.6416914,,,"SSA, OHO",,,,5,Region 5,(877) 670-6918,"ILLINOIS: Bloomington, Decatur, Galesburg, Pekin, Peoria, Rock Island, Springfield and IOWA: Davenport"
HO,T1X,Toledo,13th Floor,One Seagate,Toledo,OH,43604,(866) 783-7304,8337020716,41.652356,-83.5302729,,,"SSA, OHO",,,,5,Region 5,(877) 847-1605,"MICHIGAN: Adrian, Monroe and OHIO: Bowling Green, Defiance, Findlay, Fremont, Lima, Sandusky, Toledo (Downtown), Toledo (West)"
HO,T1W,Valparaiso,1250 Eastport Centre Drive,,Valparaiso,IN,46383,(866) 873-1269,8337020714,41.4578791,-87.0227798,,,"SSA, OHO",,,,5,Region 5,(877) 435-0326,"INDIANA: Gary, Hammond, Lafayette, Merrillville, Michigan City, South Bend, Valparaiso and MICHIGAN: Benton Harbor"
RO,X27,Dallas,Suite 460,1301 Young Street,Dallas,TX,75202-5433,(214) 767-9401,8336310149,32.787311,-96.7966,32.165693,-99.733887,"SSA, OHO","Arkansas, Louisiana, New Mexico, Oklahoma, Texas",,,6,Region 6,,
HO,X12,Albuquerque,Suite 200,"555 Broadway, NE",Albuquerque,NM,87102,(866) 731-3998,8335610420,35.087904,-106.644693,,,"SSA, OHO",,,,6,Region 6,(877) 559-1913,"NEW MEXICO: Albuquerque, Carlsbad, Clovis, Farmington, Gallup, Hobbs, Las Cruces, Las Vegas, Rio Rancho, Roswell, Santa Fe"
NHC,T0H,Albuquerque,Suite 400,"201 3rd Street, NW",Albuquerque,NM,87102,(866) 964-1298,8337960381,35.087904,-106.644693,,,"SSA, OHO, NHC",,,,6,Region 6,(877) 311-3322,NHCs are not open to the public.
NHC-SO,T2V,Albuquerque,Suite 201,"555 Broadway Boulevard, NE",Albuquerque,NM,87102,(855) 861-7072,8334140617,35.088087,-106.644419,,,"SSA, OHO, NHC-SO",,,,6,Region 6,(877) 580-1211,NHCs are not open to the public.
HO,X14,Alexandria,3403 Government Street,,Alexandria,LA,71302,(877) 748-9764,8335610425,31.26666,-92.45004,,,"SSA, OHO",,,,6,Region 6,(877) 559-1912,"LOUISIANA: Alexandria, El Dorado, LaFayette, Leesville, Monroe, Natchitoches, New Iberia, Opelousas, Ruston"
CPC,Y67,Dallas,Suite 445,1301 Young Street,Dallas,TX,75202-5433,(214) 767-3344,8334140617,32.777596,-96.799486,,,"SSA, OHO, Central Processing Center",,,,6,Region 6,,
HO,Y33,Dallas (Downtown),"Harwood Center, Suite 2300",1999 Bryan Street,Dallas,TX,75201,(866) 563-3885,8336480165,32.787311,-96.7966,,,"SSA, OHO",,,,6,Region 6,(877) 904-5484,"TEXAS: Austin, Corsicana, Dallas (Fair Park), Dallas (Oak Cliff), Georgetown, San Marcos, South Austin, Temple, Waco"
HO,T18,Dallas (North),"Building 9, Suite 500",12790 Merit Drive,Dallas,TX,75251,(866) 331-7135,8336311014,32.922686,-96.770963,,,"SSA, OHO",,,,6,Region 6,(877) 904-5524,"OKLAHOMA: Durant; TEXAS: Dallas (North), Denton, Greenville, Longview, McKinney, Mid-Cities, Palestine, Paris, Pleasant Grove, Mount Pleasant, Sherman, Tyler, Waxahachie"
HO,X55,Fort Smith,"Central Mall, Suite 475",5111 Rogers Avenue,Fort Smith,AR,72903-2034,(877) 348-7549,8333020018,35.3650077,-94.3763675,,,"SSA, OHO",,,,6,Region 6,(877) 559-1921,"ARKANSAS: Fayetteville, Fort Smith, Harrison, Mountain Home, Poteau, Russellville"
HO,X81,Fort Worth,"Federal Office Building, Room 9A27",819 Taylor Street,Fort Worth,TX,76102,(866) 613-2744,8339852267,32.750377,-97.331743,,,"SSA, OHO",,,,6,Region 6,(877) 904-5540,"TEXAS: Abilene, Big Spring, Brownwood, Cleburne, Fort Worth, Fort Worth (South), Lubbock, Odessa, Plainview, San Angelo"
HO,R38,Houston (North),4015 Aldine Bender Road,,Houston,TX,77032,(877) 850-7829,8336311018,29.7520635,-95.3737261,,,"SSA, OHO",,,,6,Region 6,(877) 486-2938,"TEXAS: Beaumont, Brenham, Bryan, Conroe, Houston (Downtown), Houston (Northeast), Houston (Southeast), Lufkin, Port Arthur"
HO,Y34,Houston (West),9700 Richmond Avenue,Suite 200,Houston,TX,77042,(866) 779-5456,8336480167,29.74187,-95.55822,,,"SSA, OHO",,,,6,Region 6,(877) 847-1603,"TEXAS: Angleton, Galveston, Houston (Northwest), Houston (Southwest), Pasadena, Victoria"
HO,X13,Little Rock,2405 Federal Office Building,700 West Capitol Avenue,Little Rock,AR,72201,(866) 592-2549,8335610423,34.7451578,-92.2783191,,,"SSA, OHO",,,,6,Region 6,(877) 559-1933,"ARKANSAS: Batesville, Blytheville, Conway, Forrest City, Hot Springs, Jonesboro, Little Rock, Pine Bluff, Searcy, Sherwood"
HO,X87,McAlester,524 South 2nd Street,,McAlester,OK,74501,(877) 748-9767,8336940065,34.9261932,-95.7695248,,,"SSA, OHO",,,,6,Region 6,(877) 559-1920,OKLAHOMA: McAlester
HO,R62,Metairie,"Galleria Building, Suite 2000",1 Galleria Boulevard,Metairie,LA,70001,(877) 870-6383,8333200689,29.9947274,-90.1526647,,,"SSA, OHO",,,,6,Region 6,(877) 559-1919,"LOUISIANA: Baton Rouge, Baton Rouge (North), Bogalusa, Hammond, Kenner"
HO,Y32,New Orleans,Suite 800,1515 Poydras Street,New Orleans,LA,70112,(888) 297-2210,8336350632,29.952051,-90.078634,,,"SSA, OHO",,,,6,Region 6,(877) 559-1922,"LOUISIANA: DeRidder, Houma, Lake Charles, Morgan City, New Orleans (Downtown), New Orleans (West Bank), St. Tammany (Lacombe)"
HO,X56,Oklahoma City,Suite 300,301 NW 6th Street,Oklahoma City,OK,73102,(866) 701-8094,8333020021,35.474053,-97.5177926,,,"SSA, OHO",,,,6,Region 6,(877) 559-1929,"OKLAHOMA: Ada, Ardmore, Chickasha, Clinton, Enid, Lawton, Moore, Oklahoma City, Shawnee and TEXAS: Amarillo, Pampa, Wichita Falls"
HO,T1Y,Rio Grande Valley,Suite 200,2009 West Jefferson Avenue,Harlingen,TX,78550,(877) 452-6985,8337020719,26.1958826,-97.7173201,,,"SSA, OHO",,,,6,Region 6,(877) 435-0329,"TEXAS: Brownsville, Harlingen, McAllen, Mission"
HO,X88,San Antonio,10222 San Pedro Avenue,,San Antonio,TX,78216,(855) 829-8915,8336940067,29.484773,-98.56837,,,"SSA, OHO",,,,6,Region 6,(877) 864-5402,"TEXAS:  Alice, Corpus Christi, Eagle Pass, El Paso, El Paso (Downtown), Kerrville, Laredo, SAN (Central), SAN (Downtown), SAN (Northwest), SAN (South), Seguin"
HO,X57,Shreveport,"Louisiana Tower, Suite 700",401 Edwards Street,Shreveport,LA,71101-6129,(866) 690-1805,8333110095,32.5143829,-93.7495503,,,"SSA, OHO",,,,6,Region 6,(877) 864-5923,"ARKANSAS: Texarkana; LOUISIANA: Minden, Shreveport and TEXAS: Marshall"
HO,X89,Tulsa,"Eastgate Metroplex, Suite 500",14002 E. 21st Street,Tulsa,OK,74134,(888) 286-1124,8337480024,36.112951,-95.78266,,,"SSA, OHO",,,,6,Region 6,(877) 904-5480,"OKLAHOMA: Bartlesville, Miami, Muskogee, Okmulgee, Stillwater, Tulsa"
RO,X28,Kansas City,Suite 600,2300 Main Street,Kansas City,MO,64108,(888) 238-7975,8336311015,39.085925,-94.580025,40.001811,-96.70166,"SSA, OHO","Iowa, Nebraska, Kansas, Missouri",,,7,Region 7,,
HO,T2F,Columbia,3402 Buttonwood Drive,,Columbia,MO,65201,(877) 331-8351,8337210879,38.9083256,-92.3305451,,,"SSA, OHO",,,,7,Region 7,(866) 262-3203,"MISSOURI: Columbia, Jefferson City, Moberly, Sedalia"
HO,T19,Creve Coeur,Suite 100,1285 Fern Ridge Parkway,Creve Coeur,MO,63141,(877) 833-2445,8339532009,38.684136,-90.473356,,,"SSA, OHO",,,,7,Region 7,(877) 389-4213,"MISSOURI: Creve Coeur (West County), Fenton (Southwest), St. Louis (Central West End), St. Louis (North County), St. Louis (South Side), St. Peters, Union"
HO,X59,Kansas City,Suite 350,2301 McGee,Kansas City,MO,64108-2605,(888) 488-7742,8333110098,39.085925,-94.580025,,,"SSA, OHO",,,,7,Region 7,(877) 417-4669,"MISSOURI: Chillicothe, Gladstone, Independence, Kansas City (Euclid Street), Kansas City (Gateway), Maryville, St. Joseph"
HO,X15,Omaha,"Exec Center, Suite 500",1000 N 90th Street,Omaha,NE,68114,(888) 881-4633,8335610427,41.232798,-96.056815,,,"SSA, OHO",,,,7,Region 7,(877) 389-4218,"IOWA: Carroll, Council Bluffs, Creston, Sioux City and NEBRASKA: Grand Island, Lincoln, Norfolk, North Platte, Omaha, Scottsbluff"
HO,X90,Springfield,Suite C,2143 East Primrose Avenue,Springfield,MO,65804,(888) 472-2404,8337480025,37.1368172,-93.2494813,,,"SSA, OHO",,,,7,Region 7,(877) 389-4215,"MISSOURI: Joplin, Lebanon, Nevada, Springfield, West Plains"
HO,X58,St. Louis,Robert A. Young Federal Building,"1222 Spruce Street, Room 6.106",St. Louis,MO,63103-9923,(866) 404-1859,8333110096,38.627279,-90.188878,,,"SSA, OHO",,,,7,Region 7,(877) 389-4216,"ILLINOIS: Alton, Belleville, East St. Louis, Litchfield, Quincy and MISSOURI: Cape Girardeau, Hannibal, Kennett, Kirksville, Park Hills, Poplar Bluff, Rolla, Sikeston, St. Louis (Downtown)"
NCAC,T1V,St. Louis,"Building 110, Suite 1313A",4300 Goodfellow Boulevard,St. Louis,MO,63120,(877) 319-6861,8337750569,38.698163,-90.267888,,,"SSA, OHO, NCAC",,,,7,Region 7,(877) 871-1880,NCACs are not open to the public.
NHC,T1U,St. Louis,"Building 110, 2nd Floor",4300 Goodfellow Boulevard,St. Louis,MO,63120,(877) 409-4579,8336760151,38.6912379,-90.2658337,,,"SSA, OHO, NHC",,,,7,Region 7,(877) 847-1604,NHCs are not open to the public.
TC,X0H,St. Louis,"Federal Center, Building 110, 2nd Floor",4300 Goodfellow Boulevard,St. Louis,MO,63120,(877) 409-4579 x20285,,38.698163,-90.267888,,,St. Louis Training Center,,,,7,Region 7,,
HO,T1M,Topeka,Suite A,3712 SW Burlingame,Topeka,KS,66609,(888) 436-2615,8339642263,38.9994989,-95.7058007,,,"SSA, OHO",,,,7,Region 7,(877) 847-1602,"KANSAS: Emporia, Johnson County, Kansas City Kansas (KcK), Lawrence, Manhattan, Topeka"
HO,X16,West Des Moines,"Regency West, Building 1, Suite 300",1501 50th Street,West Des Moines,IA,50266,(877) 628-6577,8335860158,41.5937376,-93.7696319,,,"SSA, OHO",,,,7,Region 7,(877) 417-4609,"IOWA: Ames, Burlington, Carroll, Cedar Rapids, Coralville, Creston, Decorah, Des Moines, Dubuque, Fort Dodge, Iowa City, Marshalltown, Mason City, Ottumwa, Waterloo"
HO,X91,Wichita,3207 N. Cypress Street,,Wichita,KS,67226,(866) 964-3421,8337480027,37.7414599,-97.234602,,,"SSA, OHO",,,,7,Region 7,(877) 389-4212,"KANSAS: Dodge City, Hays, Hutchinson, Independence, Salina, Wichita"
RO,X29,Denver,Suite 600,1244 Speer Boulevard,Denver,CO,80204-3584,(888) 397-9803,8336310153,39.7358751,-104.9949536,43.794361,-108.039551,"SSA, OHO","Colorado, Montana, North Dakota, South Dakota, Utah, Wyoming",,,8,Region 8,,
HO,X60,Billings,Suite 500,2900 Fourth Avenue North,Billings,MT,59101-1266,(877) 545-5512,8333110102,45.7840256,-108.5096598,,,"SSA, OHO",,,,8,Region 8,(877) 389-4223,"IDAHO: Boise, Caldwell, Idaho Falls, Pocatello, Twin Falls; MONTANA: Billings, Bozeman, Butte, Glasgow, Great Falls, Havre, Helena, Kalispell, Missoula; OREGON: Ontario; SOUTH DAKOTA: Rapid City and WYOMING: Cody, Sheridan"
SO,T2A,Boise,Suite 275,720 East Park Boulevard,Boise,ID,83712-9902,(866) 826-3892,8337210875,43.6042489,-116.1910354,,,"SSA, OHO (Satellite Office)",,,,8,Region 8,(877) 435-0332,"IDAHO: Boise, Caldwell, Idaho Falls, Pocatello, Twin Falls and OREGON: Ontario"
HO,T75,Colorado Springs,"Plaza of the Rockies, North Tower","111 S. Tejon Street, Suite 401",Colorado Springs,CO,80903,(888) 844-8269,8337790458,38.8313681,-104.8235653,,,"SSA, OHO",,,,8,Region 8,(877) 389-4219,"COLORADO: Alamosa, Canon City, Colorado Springs, Durango, La Junta, Pueblo, Trinidad"
HO,X17,Denver,Suite 752,1244 Speer Boulevard,Denver,CO,80204-3584,(888) 383-8889,8335860160,39.7358751,-104.9949536,,,"SSA, OHO",,,,8,Region 8,(877) 389-4221,"COLORADO: Aurora, Denver, Fort Collins, Glenwood Springs, Grand Junction, Greeley, Lakewood, Littleton, Louisville, Montrose"
HO,T20,Fargo,Suite 150,655 First Avenue North,Fargo,ND,58102-4971,(877) 319-3073,8337020723,46.8770284,-96.7906712,,,"SSA, OHO",,,,8,Region 8,(877) 389-4225,"MINNESOTA: Alexandria, Bemidji, Brainerd, Fergus Falls, Marshall and NORTH DAKOTA: Bismarck, Devils Lake, Fargo, Grand Forks, Jamestown, Minot, Williston"
HO,X92,Salt Lake City,Suite 3102,125 South State Street,Salt Lake City,UT,84138,(877) 628-6579,8337480029,40.7667494,-111.8878543,,,"SSA, OHO",,,,8,Region 8,(877) 486-2941,"UTAH: Ogden, Provo, Salt Lake City, South Jordan and WYOMING: Casper, Cheyenne, Riverton, Rock Springs"
SO,R33,Sioux Falls,Suite 200,1720 South Southeastern Avenue,Sioux Falls,SD,57103,(877) 378-9080,8333300045,43.5306322,-96.6948107,,,"SSA, OHO (Satellite Office)",,,,8,Region 8,(877) 389-4225,"IOWA: Spencer, Storm Lake and SOUTH DAKOTA: Aberdeen, Huron, Sioux Falls, Watertown, Yankton"
RO,X22,San Francisco,5th Floor,555 Battery Street,San Francisco,CA,94111,(866) 964-7584,8336130454,37.7899513,-122.3942138,37.220997,-117.399902,"SSA, OHO","Arizona, California, Hawaii, Nevada",,,9,Region 9,,
HO,X18,Fresno,Suite 300,2440 Tulare Street,Fresno,CA,93721,(866) 596-7568,8335860162,36.737079,-119.785065,,,"SSA, OHO",,,,9,Region 9,(877) 394-4582,"CALIFORNIA: Fresno, Hanford, Madera, Merced, Porterville, Southeast Fresno, Visalia, West Fresno"
HO,Y63,Honolulu,Prince Kuhio Federal Building,"300 Ala Moana Boulevard, Room 3-303",Honolulu,HI,96850,(855) 601-2479,8335110337,21.3034594,-157.8613763,,,"SSA, OHO",,,,9,Region 9,(877) 394-9246,"AMERICAN SAMOA: Pago Pago, Saipan; GUAM: Dededo and HAWAII: Hilo, Honolulu, Kapolei, Lihue (Kauai), Wailuku (Maui)"
HO,X71,Las Vegas,Suite 4452,"333 Las Vegas Boulevard, South",Las Vegas,NV,89101,(888) 397-5623,8339032285,36.1672394,-115.1435318,,,"SSA, OHO",,,,9,Region 9,(877) 730-3360,"NEVADA: Henderson, Las Vegas, North Las Vegas and UTAH: Cedar City Resident Station, St. George"
HO,X62,Long Beach,"Federal Building, Suite 5300",501 West Ocean Boulevard,Long Beach,CA,90802,(855) 532-0889,8333650277,33.7680709,-118.19875,,,"SSA, OHO",,,,9,Region 9,(877) 394-4587,"CALIFORNIA: Lakewood, Long Beach, San Pedro, Torrance"
HO,T29,Los Angeles (Downtown),"City National Bank Building, Suite 1200",606 South Olive Street,Los Angeles,CA,90014,(888) 488-0517,8337190416,34.047631,-118.254115,,,"SSA, OHO",,,,9,Region 9,(877) 394-4583,"CALIFORNIA: Crenshaw, Los Angeles (Downtown), University Village, Watts, Wilshire Center"
HO,T30,Los Angeles (West),Suite 400,12121 Wilshire Boulevard,Los Angeles,CA,90025,(866) 748-2089,8334140623,34.0680038,-118.4253509,,,"SSA, OHO",,,,9,Region 9,(877) 394-4585,"CALIFORNIA: Chatsworth, Culver City, Hollywood, Inglewood, Lancaster, Los Angeles Westwood, Panorama City, Santa Clarita"
HO,X0W,Moreno Valley,3rd Floor,22690 Cactus Avenue,Moreno Valley,CA,92553,(866) 737-4503,8335590770,33.910842,-117.267385,,,"SSA, OHO",,,,9,Region 9,(877) 312-9771,"CALIFORNIA: Blythe, Corona, Hemet, Indio, Moreno Valley, Morongo Basin, Palm Springs, Riverside"
HO,Y35,Norwalk,Suite 250,12440 E. Imperial Highway,Norwalk,CA,90650,(877) 870-6385,8336480169,33.916147,-118.065584,,,"SSA, OHO",,,,9,Region 9,(877) 394-4581,"CALIFORNIA: Boyle Heights, Compton, Downey, Huntington Park, Montebello, Norwalk, Whittier"
HO,X97,Oakland,"Oakland Federal Building, Suite 200N",1301 Clay Street,Oakland,CA,94612,(866) 366-4916,8337690239,37.8045961,-122.2740312,,,"SSA, OHO",,,,9,Region 9,(877) 394-4588,"CALIFORNIA: Antioch, Berkeley, East Oakland, Fremont, Hayward/Livermore (merged), Oakland, Richmond, San Leandro, Walnut Creek"
HO,X98,Orange,"Centrum North, Suite 600",1120 West La Veta Avenue,Orange,CA,92868,(866) 593-1447,8337690241,33.7802359,-117.8653191,,,"SSA, OHO",,,,9,Region 9,(877) 822-0169,"CALIFORNIA: Anaheim, Brea, Fountain Valley, Garden Grove, Mission Viejo, Newport Beach, Ontario, Pomona Valley, Santa Ana"
HO,X61,Pasadena,"Pasadena Towers 1, Suite 500",800 E. Colorado Boulevard,Pasadena,CA,91101,(866) 354-0220,8333110104,34.1458706,-118.133873,,,"SSA, OHO",,,,9,Region 9,(877) 822-5144,"CALIFORNIA: Alhambra, Arcadia, Burbank, El Monte, Glendale, Glendora, Industry Hills, Old Burbank, Pasadena, San Fernando, West Covina"
HO,X65,Phoenix,"Siete Square, Suite 200",3737 North 7th Street,Phoenix,AZ,85014,(888) 748-1991,8333650283,33.49137,-112.064007,,,"SSA, OHO",,,,9,Region 9,(877) 394-4579,"ARIZONA: Apache Junction, Chinle, Flagstaff, Mesa, Phoenix (Downtown), Tuba City"
HO,T1R,Phoenix (North),Suite 430,18444 North 25th Avenue,Phoenix,AZ,85023,(877) 784-3690,8336760149,33.653301,-112.113038,,,"SSA, OHO",,,,9,Region 9,(877) 847-1601,"ARIZONA: Colorado River Basin, Glendale, Phoenix (North), Prescott"
HO,T2G,Reno,Suite 4000,300 Booth Street,Reno,NV,89509,(877) 897-0607,8337210881,39.5177819,-119.825747,,,"SSA, OHO",,,,9,Region 9,(877) 871-1885,"NEVADA: Elko, Reno"
NCAC,,Richmond,Frank Hagel Federal Building,"1221 Nevin Avenue, 6th Floor",Richmond,CA,94801,(855) 295-8304,8334140621,37.937585,-122.357152,,,"SSA, OHO, NCAC",,,,9,Region 9,,NCACs are not open to the public.
HO,X63,Sacramento,Suite 250,1610 Arden Way,Sacramento,CA,95815,(866) 931-2544,8333650279,38.5999001,-121.4279546,,,"SSA, OHO",,,,9,Region 9,(877) 394-9226,"CALIFORNIA: Auburn, Chico, Oroville, Placerville, Redding, Roseville, Sacramento, Sacramento (North), Sacramento (South), Sacramento (West), Susanville, Yuba City"
HO,T25,San Bernardino,Suite 200,605 North Arrowhead Avenue,San Bernardino,CA,92401,(866) 331-7127,8337190408,34.1107464,-117.288953,,,"SSA, OHO",,,,9,Region 9,(877) 394-9227,"CALIFORNIA:  Barstow, Fontana, Redlands, San Bernardino, Victorville"
HO,X19,San Diego,Suite 900,525 B Street,San Diego,CA,92101,(866) 331-2294,8335860164,32.71752,-117.159695,,,"SSA, OHO",,,,9,Region 9,(877) 394-9228,"CALIFORNIA: Chula Vista, El Cajon, El Centro, Kearny Mesa, La Mesa,  National City, Pacific Beach, Oceanside, San Diego, San Marcos, Yuma"
HO,X64,San Francisco,"Equity Building, 16th Floor",301 Howard Street,San Francisco,CA,94105,(866) 770-1221,8333650281,37.7899513,-122.3942138,,,"SSA, OHO",,,,9,Region 9,(877) 394-9237,"CALIFORNIA: Bakersfield, Bakersfield-East Hills, Chinatown, Daly City, Delano, Mission, Parkside, San Francisco (Downtown), San Mateo, Western Addition"
HO,Y36,San Jose,Robert F. Peckham Federal Building,280 South 1ST ST RM 330,San Jose,CA,95113-3005,(866) 331-2219,8336480171,37.3318157,-121.8873173,,,"SSA, OHO",,,,9,Region 9,(877) 394-9239,"CALIFORNIA: Campbell, Gilroy, Mountain View, Redwood City, Salinas, San Jose, San Jose (East), San Jose (South), Santa Cruz, Watsonville"
HO,X96,San Rafael,Suite 230,4040 Civic Center Drive,San Rafael,CA,94903,(866) 814-3559,8337480036,38.0057614,-122.5394193,,,"SSA, OHO",,,,9,Region 9,(877 )394-9240,"CALIFORNIA: Crescent City, Eureka, Lakeport, Napa, San Rafael, Santa Rosa, Suisun City, Ukiah, Vallejo"
HO,Y37,Santa Barbara,Suite 206,222 East Carrillo Street,Santa Barbara,CA,93101,(866) 273-4953,8336560266,34.424114,-119.698421,,,"SSA, OHO",,,,9,Region 9,(877) 394-9242,"CALIFORNIA: Oxnard, San Luis Obispo, Santa Barbara, Santa Maria, Thousand Oaks, Ventura"
HO,R73,Stockton,Suite 100,3116 W. March Lane,Stockton,CA,95219,(866) 494-3136,8333200691,37.9838802,-121.3508824,,,"SSA, OHO",,,,9,Region 9,(877) 394-9243,"CALIFORNIA: Lodi, Manteca, Modesto, Sonora, Stockton"
HO,X66,Tucson,"Rio Nuevo Professional Plaza, Suite 265",201 N. Bonita Avenue,Tucson,AZ,85745,(888) 383-8694,8333650285,32.2237721,-110.9828152,,,"SSA, OHO",,,,9,Region 9,(877) 394-4580,"ARIZONA: Casa Grande, Douglas, Globe, Nogales, Safford, Sells, Show Low, Tucson, Tucson (South)"
RO,X30,Seattle,"Columbia Tower, Suite 2900","701 5th Avenue, M\S 904",Seattle,WA,98104-7075,(206) 615-2236,8336310155,47.60207,-122.327246,45.328464,-119.289551,"SSA, OHO","Alaska, Idaho, Oregon, Washington",,,10,Region 10,,
SO,T1G,Anchorage,Suite 610,188 W Northern Lights Boulevard,Anchorage,AK,99503,(855) 602-5004,8339532037,61.194786,-149.88599,,,"SSA, OHO (Satellite Office)",,,,10,Region 10,(877) 714-3607,"ALASKA: Anchorage, Fairbanks, Juneau"
HO,X99,Eugene,Suite 201,211 E. 7th Avenue,Eugene,OR,97401,(866) 964-7044,8337690243,44.05267,-123.088909,,,"SSA, OHO",,,,10,Region 10,(877) 714-3613,"OREGON: Chiloquin, Christmas Valley, I-5 Corridor from Albany to Weed, CA, Klamath Falls, La Pine, Lakeview, Madras, Medford, Oregon Coast from Depoe Bay to Gold Beach, Prineville, Redmond, Sisters"
HO,T28,Portland,Suite 400,825 NE Multnomah Street,Portland,OR,97232-2483,(866) 964-6291,8337190414,45.529553,-122.646316,,,"SSA, OHO",,,,10,Region 10,(877) 714-3616,"OREGON: Astoria, Beaverton, La Grande, Portland (Downtown), Portland (East), Portland (NE), Salem, The Dalles; WASHINGTON: Longview, Vancouver"
HO,Y38,Seattle,"Yesler Building, Suite 500",300 5th Avenue,Seattle,WA,98104-3389,(888) 366-6144,8336560278,47.60207,-122.327246,,,"SSA, OHO",,,,10,Region 10,(877) 714-3634,"WASHINGTON: Bellevue, Bellingham, Everett, Kitsap, Lynnwood, Mt. Vernon, Port Angeles, Renton, Seattle (Metro), Seattle (North), Wenatchee, Yakima; ALASKA: Anchorage, Fairbanks, Juneau"
HO,Y03,Spokane,Suite 200,714 N Iron Bridge Way,Spokane,WA,99202-4929,(888) 253-3903,8337690245,47.6568696,-117.3719973,,,"SSA, OHO",,,,10,Region 10,(877) 714-3615,"IDAHO: Coeur d'Alene, Lewiston; WASHINGTON: Kennewick (Tri-Cities), Pullman, Spokane, Walla Walla; OREGON: Pendleton"
HO,T1H,Tacoma,Suite 200,2413 Pacific Avenue,Tacoma,WA,98402,(888) 208-4640,8339532162,47.239595,-122.434829,,,"SSA, OHO",,,,10,Region 10,(877) 313-4919,"WASHINGTON: Centralia, Grays Harbor, Kent, Olympia, Puyallup, Tacoma"
